NUSAT-48 (HENRIETTA LE*)
1 60498U 24149AG  26068.80506098  .00012988  00000+0  45212-3 0  9999
2 60498  97.3923 150.8264 0002754 263.3026  96.7901 15.29812597 86946
STARLINK-36169          
1 66929U 25286E   26068.18794224  .00031745  00000+0  10794-2 0  9996
2 66929  53.1599   0.5231 0000938  52.5724 307.5362 15.30198841 15341
